STARLINK-31805          
1 59745U 24090R   26067.37766713 -.00000349  00000+0 -31871-5 0  9998
2 59745  42.9984 190.5453 0000821 280.8207  79.2552 15.27574915103249
TEVEL2-1                
1 63217U 25052H   26068.64782323  .00020683  00000+0  70600-3 0  9994
2 63217  97.3991 324.7682 0004767 104.8919 255.2849 15.30341923 54855
